#dP2022  4  6  0  0  0.00000000      96 __u+U ITR14 FIT  IAC
## 2204 259200.00000000   900.00000000 59675 0.0000000000000
+  126   C01C02C03C04C05C06C07C08C09C10C11C12C13C14C16C19C20
+        C21C22C23C24C25C26C27C28C29C30C32C33C34C35C36C37C38
+        C39C40C41C42C43C44C45C46C60E01E02E03E04E05E07E08E09
+        E10E11E12E13E14E15E18E19E21E24E25E26E27E30E31E33E34
+        E36G01G02G03G04G05G06G07G08G09G10G12G13G14G15G16G17
+        G18G19G20G21G22G23G24G25G26G27G28G29G30G31G32J02J03
+        J07R01R02R03R04R05R06R07R08R09R10R11R12R13R14R15R17
+        R18R19R20R21R22R23R24  0  0  0  0  0  0  0  0  0  0
++         0  0  0  0  0  0  0  0  0  0  0  0  0  0  0  0  0
++         0  0  0  0  0  0  0  0  0  0  0  0  0  0  0  0  0
++         0  0  0  0  0  0  0  0  0  0  0  0  0  0  0  0  0
++         0  0  0  0  0  0  0  0  0  0  0  0  0  0  0  0  0
++         0  0  0  0  0  0  0  0  0  0  0  0  0  0  0  0  0
++         0  0  0  0  0  0  0  0  0  0  0  0  0  0  0  0  0
++         0  0  0  0  0  0  0  0  0  0  0  0  0  0  0  0  0
++         0  0  0  0  0  0  0  0  0  0  0  0  0  0  0  0  0
%c M  cc GPS ccc cccc cccc cccc cccc ccccc ccccc ccccc ccccc
%c cc cc ccc ccc cccc cccc cccc cccc ccccc ccccc ccccc ccccc
%f  0.0000000  0.000000000  0.00000000000  0.000000000000000
%f  0.0000000  0.000000000  0.00000000000  0.000000000000000
%i    0    0    0    0      0      0      0      0         0
%i    0    0    0    0      0      0      0      0         0
/* INFORMATION & ANALYSIS CENTER (IAC)            RAPID DATA
/* S/V CLOCKS ARE ALIGNED TO GNSS TIME                      
/* G:C1WC2W R:C1PC2P E:C1XC5X C:C2IC6I J:C1CC2S             
/* PCV:IGS14_2196 OL/AL:FES2004  NONE     YN ORB:CoN CLK:CoN
*  2022 04 06 14 15  0.00000000
PC01 -34301.902380  24485.442002    434.151810     53.512121
PC02   4289.208917  41960.181980    978.929582    153.782321
PC03 -14825.958220  39452.499687   1324.877489   -563.847186
PC04 -39606.832325  14438.263810    100.537939     49.599035
PC05  21813.536765  36064.393279    675.186637    145.628426
PC06 -18091.483599  36382.174976 -11658.709783   -254.769460
PC07  -3826.341931  34622.293401 -23667.089883     40.887389
PC08 -11188.434308  19347.429167  35747.702139    242.840000
PC09 -10518.048342  35053.757283 -21000.856700   -671.947447
PC10   3338.338993  37591.893343 -18068.306113    137.025715
PC11 -11619.023459  -9954.553653 -23276.136567    275.199831
PC12   3473.999773 -22452.373509 -16175.153838   -630.598000
PC13    306.165635  22486.929112  35806.616454 999999.999999
PC14 -16938.514841 -19521.652633  10626.663282    455.346993
PC16 -19659.252349  36170.117186  -9539.150883    115.005962
PC19  18433.819676  10775.012624 -17924.144028    880.460124
PC20  13440.602345  24216.293889  -3250.800048   -868.884450
PC21    -31.315810 -23968.333069 -14290.066923    -64.542346
PC22  12957.841909  -9483.332361 -22817.858574   -965.465682
PC23 -23856.566881   6743.480957 -12809.802081   -935.213790
PC24 -13541.742688 -15193.057656  19068.660523   -951.246986
PC25 -27240.354814  -4782.625481   3628.332258   -754.964789
PC26   5600.578700 -15647.810214  22407.655434    755.588292
PC27 -10639.670305  24318.974159   8622.400250    703.617001
PC28 -20213.935843  17184.617830  -8653.547244     52.152723
PC29  18027.199052   -200.784865  21290.061563    537.710888
PC30   5306.892782  17806.084338  20821.275428    496.476529
PC32    122.314825  23925.570956  14373.730602   -964.294701
PC33 -18545.318884 -10746.641417  17891.792528   -970.007854
PC34  -6179.610883 -17060.862532 -21205.657654   -431.635285
PC35  19816.370671 -17197.378327   9436.767487    216.404255
PC36  27001.080646   5732.688872  -4099.502033   -964.856987
PC37  -7199.419794  15253.714658 -22217.998901   -927.986625
PC38 -18954.341919  19659.517845  32117.982121    223.239712
PC39 -21841.076531  36064.814500  -2797.940847     34.926899
PC40  -6863.462671  31041.631290 -27633.408284    258.579703
PC41 -13256.450223   9048.794892  22884.554795   -969.070679
PC42 -13009.430552 -24593.144517   2359.949667   -947.057987
PC43 -17844.902993   -611.606606 -21462.624155   -931.586430
PC44   9832.141959 -24693.639133  -8453.148419    619.044027
PC45  23703.697712  -6842.973120  13059.315839    724.271726
PC46  15082.501750  14684.698976 -18340.723383   -257.511393
PC60   7253.476738  41518.047566    986.826080     -0.538472
PE01  25919.570242   9389.665783  10785.560872   -611.180267
PE02 -25896.126936  -9237.922801 -10946.999534    291.088677
PE03 -16912.185298  -2458.596260  24171.804002   -545.181756
PE04  14294.600544 -18809.737583 -17822.585417  -1000.703114
PE05  -9629.472979 -22675.030851  16418.751436   -193.377047
PE07  -3164.148081  29415.331422    791.800666   -655.892320
PE08 -14004.582647  19156.425669  17692.685700   -507.757743
PE09   2913.742190 -29458.165214   -586.314788   -474.971133
PE10  18318.353585 -18659.196212 -13875.134691   -505.027889
PE11   8368.753090 -19060.096248 -21042.924479   4032.865069
PE12  24883.995523 -15241.037440  -4886.643027   4676.335788
PE13  -9105.714338  19109.086630  20700.620598    427.835010
PE14 -20042.084211  -1591.116329 -23799.551557  -1804.543178
PE15 -24941.138388  15233.813064   4746.822354    753.298842
PE18  16775.877715 -13488.446156  14720.055820  -1596.368246
PE19  16376.000509   5303.561360 -24069.586605  -2563.390968
PE21  20572.609451  20166.696961  -6821.296125   -726.882649
PE24  -1677.792236 -19662.929769  22036.200657   -546.215199
PE25 -20400.530654 -20245.773191   7062.380593   -569.440697
PE26  12971.656057  11322.504706  24079.722459   -998.977527
PE27   3076.166726  20082.082829 -21534.204480   -270.106794
PE30 -16959.154731   7336.785255 -23134.401520   -408.935574
PE31  16098.948244  -8175.611805  23458.222558   -494.654217
PE33  25992.657915  -2377.784046  13949.747997   -457.870558
PE34 -26073.796426   2583.396908 -13778.113273   -510.663664
PE36 -11990.772457 -11727.093144 -24388.778096   -355.851844
PG01  -1008.429084 -14983.352267 -22163.594685    391.275057
PG02 -19194.817182  15641.451540  10453.656668   -652.948296
PG03  -9696.334333 -20999.937765 -13260.826456   -195.564614
PG04   -303.123674 -24883.488210   9169.786276   -178.080751
PG05  -5243.484410  14921.959186  21153.881682    -77.338380
PG06 -25736.634192   5159.988294  -4269.879306    257.127915
PG07 -17684.675746  -8335.202966  18587.313668    319.281689
PG08   5616.987754 -25746.882286    825.948575    -62.825360
PG09  -8889.317357 -18068.347264  17236.791640   -345.427623
PG10  22091.290411   9256.835765 -11640.716265   -370.377907
PG12   4997.691796  20978.320115 -15853.959994   -196.240462
PG13 -13187.617993  21731.407289   7244.068490    289.471108
PG14 -21833.463424 -10473.789990 -11008.709231   -100.434965
PG15  -2097.943627  26302.889354   -272.915122    -71.033908
PG16  10579.746433 -10494.100090  21703.936492   -488.859717
PG17 -14731.006514  -1320.477511 -21637.121145    596.877094
PG18  17036.961155   8229.675119  18677.192671    202.135359
PG19 -16362.637856   6046.495396 -20230.846143    140.832076
PG20 -13862.032771   8958.062124  20767.466777    515.951267
PG21  10218.949261 -16890.751777 -16781.092592    160.187531
PG22  16226.615945  -9676.886544 -18183.848563    239.115663
PG23  20820.902368  16510.808129  -1494.538963    -12.872424
PG24  -2628.071818  17221.616032 -20242.280911    260.017504
PG25  16804.316534  20132.490260  -5351.916695    308.383473
PG26  19238.803998  -1633.441673  18280.356884    196.586937
PG27  12362.858692 -20148.765795  11489.822346    176.178566
PG28 -19329.008168  -3591.089163 -17234.955319    373.517113
PG29   5958.825794  19557.816226  16871.084419   -500.012541
PG30 -23621.889168  -2306.288727  12250.613269   -522.491279
PG31  26013.357742  -6275.784127  -1877.095006   -172.240914
PG32  15641.320646  -1954.788617 -21209.299795    -99.794700
PJ02 -24819.455909  16632.601152 -25243.282947     -2.517713
PJ03 -27943.993825  31498.517530   1864.697586     -1.388008
PJ07 -25375.519661  33680.234099    -32.755577      0.000841
PR01  10443.374182  -3705.811338 -22968.498027      7.606957
PR02   1752.682317 -21218.700649 -13953.869672    514.736535
PR03  -7319.126791 -24238.794445   2905.495563     54.435930
PR04 -11901.295977 -13775.644950  17897.328247    135.401413
PR05 -10068.166725   4292.688603  23057.920180     90.676941
PR06   -617.776196  21883.241851  13106.204784    -41.655291
PR07   7547.182893  24134.920975  -3484.601283     33.536386
PR08  12009.130021  13678.020368 -17820.109056    -64.458030
PR09  -6627.978263   9774.008114 -22602.607536     48.336440
PR10  10806.054426  12613.333703 -19400.136059    -81.277309
PR11  23537.390046   8695.581805  -4545.854277     41.806192
PR12  21618.791312   -561.770417  13563.759873     17.792535
PR13   7799.790195  -9047.248609  22518.578748    -20.482932
PR14 -12054.944640 -12733.145845  18539.030463     76.234883
PR15 -23684.375390  -8701.612311   3758.739903     97.024802
PR17   1121.296375 -14251.492664 -21127.460890    515.365910
PR18 -12588.384772  -1815.527920 -22109.367528    112.695616
PR19 -19821.959159  10161.568659 -12435.378996   -184.362968
PR20 -15838.870843  18490.600677   7698.618715    -68.109529
PR21     83.484896  13313.386923  21751.906385   -291.202671
PR22  13026.944914   1247.422750  21857.173562   -175.213397
PR23  19997.883705 -14202.437025   6974.895663    -36.196910
PR24  14873.231447 -19001.820368  -8264.709731     87.822171
EOF
